{
  "type": "FeatureCollection",
  "features": [
    {
      "type": "Feature",
      "properties": {
        "norad_id": 33805,
        "name": "COSMOS 2251 DEB",
        "group": "cosmos-2251-debris",
        "lat": -28.991779456181597,
        "lon": -80.1351075886515,
        "alt_km": 740.109024947832,
        "timestamp": "2025-12-24T11:33:00.411152+00:00",
        "meta_object_name": "COSMOS 2251 DEB",
        "meta_object_id": "1993-036AW",
        "meta_epoch": "2025-12-24T01:48:29.815776",
        "meta_mean_motion": 14.57879595,
        "meta_eccentricity": 0.0059915,
        "meta_inclination": 74.0313,
        "meta_ra_of_asc_node": 289.7664,
        "meta_arg_of_pericenter": 115.441,
        "meta_mean_anomaly": 245.2971,
        "meta_ephemeris_type": 0,
        "meta_classification_type": "U",
        "meta_norad_cat_id": 33805,
        "meta_element_set_no": 999,
        "meta_rev_at_epoch": 89392,
        "meta_bstar": 0.00022508,
        "meta_mean_motion_dot": 1.027e-05,
        "meta_mean_motion_ddot": 0,
        "tle_line1": "1 33805U 93036AW  25358.07534509  .00001027  00000+0  22508-3 0  9995",
        "tle_line2": "2 33805  74.0313 289.7664 0059915 115.4410 245.2971 14.57879595893927"
      },
      "geometry": {
        "type": "Point",
        "coordinates": [
          -80.1351075886515,
          -28.991779456181597
        ]
      }
    },
    {
      "type": "Feature",
      "properties": {
        "norad_id": 33811,
        "name": "COSMOS 2251 DEB",
        "group": "cosmos-2251-debris",
        "lat": 45.255420482463485,
        "lon": -64.68708593043023,
        "alt_km": 531.8995972134226,
        "timestamp": "2025-12-24T11:33:00.411163+00:00",
        "meta_object_name": "COSMOS 2251 DEB",
        "meta_object_id": "1993-036BC",
        "meta_epoch": "2025-12-24T03:51:07.385760",
        "meta_mean_motion": 15.05593435,
        "meta_eccentricity": 0.0030949,
        "meta_inclination": 73.8382,
        "meta_ra_of_asc_node": 278.9644,
        "meta_arg_of_pericenter": 357.4534,
        "meta_mean_anomaly": 112.2402,
        "meta_ephemeris_type": 0,
        "meta_classification_type": "U",
        "meta_norad_cat_id": 33811,
        "meta_element_set_no": 999,
        "meta_rev_at_epoch": 90190,
        "meta_bstar": 0.0011333,
        "meta_mean_motion_dot": 0.00016514,
        "meta_mean_motion_ddot": 0,
        "tle_line1": "1 33811U 93036BC  25358.16050215  .00016514  00000+0  11333-2 0  9999",
        "tle_line2": "2 33811  73.8382 278.9644 0030949 357.4534 112.2402 15.05593435901906"
      },
      "geometry": {
        "type": "Point",
        "coordinates": [
          -64.68708593043023,
          45.255420482463485
        ]
      }
    },
    {
      "type": "Feature",
      "properties": {
        "norad_id": 33815,
        "name": "COSMOS 2251 DEB",
        "group": "cosmos-2251-debris",
        "lat": -7.370668420878088,
        "lon": 149.73024651119488,
        "alt_km": 503.97969664952507,
        "timestamp": "2025-12-24T11:33:00.411174+00:00",
        "meta_object_name": "COSMOS 2251 DEB",
        "meta_object_id": "1993-036BG",
        "meta_epoch": "2025-12-23T12:09:09.431424",
        "meta_mean_motion": 15.20902163,
        "meta_eccentricity": 0.00029334,
        "meta_inclination": 73.9518,
        "meta_ra_of_asc_node": 153.9206,
        "meta_arg_of_pericenter": 325.2276,
        "meta_mean_anomaly": 91.1426,
        "meta_ephemeris_type": 0,
        "meta_classification_type": "U",
        "meta_norad_cat_id": 33815,
        "meta_element_set_no": 999,
        "meta_rev_at_epoch": 88534,
        "meta_bstar": 0.0074914907,
        "meta_mean_motion_dot": 0.00169618,
        "meta_mean_motion_ddot": 0,
        "tle_line1": "1 33815U 93036BG  25357.50635916  .00169618  00000+0  74915-2 0  9996",
        "tle_line2": "2 33815  73.9518 153.9206 0002933 325.2276  91.1426 15.20902163885345"
      },
      "geometry": {
        "type": "Point",
        "coordinates": [
          149.73024651119488,
          -7.370668420878088
        ]
      }
    },
    {
      "type": "Feature",
      "properties": {
        "norad_id": 33816,
        "name": "COSMOS 2251 DEB",
        "group": "cosmos-2251-debris",
        "lat": 20.946696664654393,
        "lon": -100.85332277437327,
        "alt_km": 861.8976823526127,
        "timestamp": "2025-12-24T11:33:00.411185+00:00",
        "meta_object_name": "COSMOS 2251 DEB",
        "meta_object_id": "1993-036BH",
        "meta_epoch": "2025-12-23T15:42:08.286048",
        "meta_mean_motion": 13.81795004,
        "meta_eccentricity": 0.02641804,
        "meta_inclination": 73.8952,
        "meta_ra_of_asc_node": 86.8973,
        "meta_arg_of_pericenter": 97.6669,
        "meta_mean_anomaly": 265.4539,
        "meta_ephemeris_type": 0,
        "meta_classification_type": "U",
        "meta_norad_cat_id": 33816,
        "meta_element_set_no": 999,
        "meta_rev_at_epoch": 84824,
        "meta_bstar": 0.00033497003,
        "meta_mean_motion_dot": 4.46e-06,
        "meta_mean_motion_ddot": 0,
        "tle_line1": "1 33816U 93036BH  25357.65426257  .00000446  00000+0  33497-3 0  9993",
        "tle_line2": "2 33816  73.8952  86.8973 0264180  97.6669 265.4539 13.81795004848240"
      },
      "geometry": {
        "type": "Point",
        "coordinates": [
          -100.85332277437327,
          20.946696664654393
        ]
      }
    },
    {
      "type": "Feature",
      "properties": {
        "norad_id": 33818,
        "name": "COSMOS 2251 DEB",
        "group": "cosmos-2251-debris",
        "lat": -37.6782652192565,
        "lon": 129.22272177111597,
        "alt_km": 548.0612808555306,
        "timestamp": "2025-12-24T11:33:00.411197+00:00",
        "meta_object_name": "COSMOS 2251 DEB",
        "meta_object_id": "1993-036BK",
        "meta_epoch": "2025-12-23T20:31:12.070848",
        "meta_mean_motion": 15.13379701,
        "meta_eccentricity": 0.00244034,
        "meta_inclination": 74.0791,
        "meta_ra_of_asc_node": 143.2535,
        "meta_arg_of_pericenter": 126.7749,
        "meta_mean_anomaly": 23.4057,
        "meta_ephemeris_type": 0,
        "meta_classification_type": "U",
        "meta_norad_cat_id": 33818,
        "meta_element_set_no": 999,
        "meta_rev_at_epoch": 90030,
        "meta_bstar": 0.0025355878,
        "meta_mean_motion_dot": 0.0004583,
        "meta_mean_motion_ddot": 0,
        "tle_line1": "1 33818U 93036BK  25357.85500082  .00045830  00000+0  25356-2 0  9996",
        "tle_line2": "2 33818  74.0791 143.2535 0024403 126.7749  23.4057 15.13379701900305"
      },
      "geometry": {
        "type": "Point",
        "coordinates": [
          129.22272177111597,
          -37.6782652192565
        ]
      }
    },
    {
      "type": "Feature",
      "properties": {
        "norad_id": 33819,
        "name": "COSMOS 2251 DEB",
        "group": "cosmos-2251-debris",
        "lat": -73.28104850112805,
        "lon": 117.8562731932003,
        "alt_km": 832.8420542476442,
        "timestamp": "2025-12-24T11:33:00.411208+00:00",
        "meta_object_name": "COSMOS 2251 DEB",
        "meta_object_id": "1993-036BL",
        "meta_epoch": "2025-12-24T00:45:56.971296",
        "meta_mean_motion": 14.3225802,
        "meta_eccentricity": 0.00895,
        "meta_inclination": 74.1773,
        "meta_ra_of_asc_node": 189.4197,
        "meta_arg_of_pericenter": 47.3369,
        "meta_mean_anomaly": 72.9499,
        "meta_ephemeris_type": 0,
        "meta_classification_type": "U",
        "meta_norad_cat_id": 33819,
        "meta_element_set_no": 999,
        "meta_rev_at_epoch": 87657,
        "meta_bstar": 0.00050056,
        "meta_mean_motion_dot": 1.387e-05,
        "meta_mean_motion_ddot": 0,
        "tle_line1": "1 33819U 93036BL  25358.03190939  .00001387  00000+0  50056-3 0  9999",
        "tle_line2": "2 33819  74.1773 189.4197 0089500  47.3369  72.9499 14.32258020876578"
      },
      "geometry": {
        "type": "Point",
        "coordinates": [
          117.8562731932003,
          -73.28104850112805
        ]
      }
    },
    {
      "type": "Feature",
      "properties": {
        "norad_id": 33821,
        "name": "COSMOS 2251 DEB",
        "group": "cosmos-2251-debris",
        "lat": -56.828878101893615,
        "lon": 92.01941047269804,
        "alt_km": 524.4823188310547,
        "timestamp": "2025-12-24T11:33:00.411218+00:00",
        "meta_object_name": "COSMOS 2251 DEB",
        "meta_object_id": "1993-036BN",
        "meta_epoch": "2025-12-24T02:22:37.030080",
        "meta_mean_motion": 15.25999925,
        "meta_eccentricity": 0.0049588,
        "meta_inclination": 74.0305,
        "meta_ra_of_asc_node": 118.8107,
        "meta_arg_of_pericenter": 148.3713,
        "meta_mean_anomaly": 212.0485,
        "meta_ephemeris_type": 0,
        "meta_classification_type": "U",
        "meta_norad_cat_id": 33821,
        "meta_element_set_no": 999,
        "meta_rev_at_epoch": 75174,
        "meta_bstar": 0.001283,
        "meta_mean_motion_dot": 0.00034308,
        "meta_mean_motion_ddot": 0,
        "tle_line1": "1 33821U 93036BN  25358.09903970  .00034308  00000+0  12830-2 0  9991",
        "tle_line2": "2 33821  74.0305 118.8107 0049588 148.3713 212.0485 15.25999925751747"
      },
      "geometry": {
        "type": "Point",
        "coordinates": [
          92.01941047269804,
          -56.828878101893615
        ]
      }
    }
  ]
}